[{"OBJECT_NAME":"STARLINK-35734","OBJECT_ID":"2025-244V","EPOCH":"2026-03-09T17:29:55.478112","MEAN_MOTION":15.30199472,"ECCENTRICITY":0.00010409,"INCLINATION":53.1576,"RA_OF_ASC_NODE":229.8587,"ARG_OF_PERICENTER":60.4989,"MEAN_ANOMALY":299.6116,"EPHEMERIS_TYPE":0,"CLASSIFICATION_TYPE":"U","NORAD_CAT_ID":66225,"ELEMENT_SET_NO":999,"REV_AT_EPOCH":2166,"BSTAR":0.00077581515,"MEAN_MOTION_DOT":0.00022688,"MEAN_MOTION_DDOT":0},{"OBJECT_NAME":"KUIPER-00213","OBJECT_ID":"2026-030P","EPOCH":"2026-03-09T22:00:01.999584","MEAN_MOTION":15.32626943,"ECCENTRICITY":0.00152813,"INCLINATION":51.8816,"RA_OF_ASC_NODE":218.5142,"ARG_OF_PERICENTER":64.2462,"MEAN_ANOMALY":206.8369,"EPHEMERIS_TYPE":0,"CLASSIFICATION_TYPE":"U","NORAD_CAT_ID":67777,"ELEMENT_SET_NO":999,"REV_AT_EPOCH":502,"BSTAR":0.0016072376,"MEAN_MOTION_DOT":0.00051551,"MEAN_MOTION_DDOT":0}]
